CCSDS_OMM_VERS = 2.0
CREATION_DATE  = 
ORIGINATOR     = 

OBJECT_NAME    = STARLINK-36176
OBJECT_ID      = 2025-293Z
CENTER_NAME    = EARTH
REF_FRAME      = TEME
TIME_SYSTEM    = UTC
MEAN_ELEMENT_THEORY = SGP/SGP4

EPOCH          = 2025-12-28T22:00:01.999584
MEAN_MOTION    = 15.64054505
ECCENTRICITY   = .0003357
INCLINATION    = 69.9993
RA_OF_ASC_NODE = 277.2071
ARG_OF_PERICENTER = 263.9346
MEAN_ANOMALY   = 301.0774

EPHEMERIS_TYPE = 0
CLASSIFICATION_TYPE = U
NORAD_CAT_ID   = 67026
ELEMENT_SET_NO = 999
REV_AT_EPOCH   = 281
BSTAR          = -.20014662E-1
MEAN_MOTION_DOT = -.1675749E-1
MEAN_MOTION_DDOT = 0

CCSDS_OMM_VERS = 2.0
CREATION_DATE  = 
ORIGINATOR     = 

OBJECT_NAME    = STARLINK-36171
OBJECT_ID      = 2025-293AA
CENTER_NAME    = EARTH
REF_FRAME      = TEME
TIME_SYSTEM    = UTC
MEAN_ELEMENT_THEORY = SGP/SGP4

EPOCH          = 2025-12-28T22:00:01.999584
MEAN_MOTION    = 15.64064226
ECCENTRICITY   = .00032739
INCLINATION    = 69.9992
RA_OF_ASC_NODE = 277.2092
ARG_OF_PERICENTER = 264.4107
MEAN_ANOMALY   = 298.5711

EPHEMERIS_TYPE = 0
CLASSIFICATION_TYPE = U
NORAD_CAT_ID   = 67027
ELEMENT_SET_NO = 999
REV_AT_EPOCH   = 281
BSTAR          = -.19964066E-1
MEAN_MOTION_DOT = -.1672519E-1
MEAN_MOTION_DDOT = 0

CCSDS_OMM_VERS = 2.0
CREATION_DATE  = 
ORIGINATOR     = 

OBJECT_NAME    = STARLINK-36132
OBJECT_ID      = 2025-293AB
CENTER_NAME    = EARTH
REF_FRAME      = TEME
TIME_SYSTEM    = UTC
MEAN_ELEMENT_THEORY = SGP/SGP4

EPOCH          = 2025-12-28T22:00:01.999584
MEAN_MOTION    = 15.64013167
ECCENTRICITY   = .00032963
INCLINATION    = 69.9992
RA_OF_ASC_NODE = 277.2016
ARG_OF_PERICENTER = 264.7813
MEAN_ANOMALY   = 304.5441

EPHEMERIS_TYPE = 0
CLASSIFICATION_TYPE = U
NORAD_CAT_ID   = 67028
ELEMENT_SET_NO = 999
REV_AT_EPOCH   = 281
BSTAR          = -.20018963E-1
MEAN_MOTION_DOT = -.1673592E-1
MEAN_MOTION_DDOT = 0

CCSDS_OMM_VERS = 2.0
CREATION_DATE  = 
ORIGINATOR     = 

OBJECT_NAME    = STARLINK-36190
OBJECT_ID      = 2025-293AC
CENTER_NAME    = EARTH
REF_FRAME      = TEME
TIME_SYSTEM    = UTC
MEAN_ELEMENT_THEORY = SGP/SGP4

EPOCH          = 2025-12-28T22:00:01.999584
MEAN_MOTION    = 15.64041978
ECCENTRICITY   = .00033163
INCLINATION    = 69.9993
RA_OF_ASC_NODE = 277.2048
ARG_OF_PERICENTER = 264.1203
MEAN_ANOMALY   = 302.9599

EPHEMERIS_TYPE = 0
CLASSIFICATION_TYPE = U
NORAD_CAT_ID   = 67029
ELEMENT_SET_NO = 999
REV_AT_EPOCH   = 281
BSTAR          = -.20004582E-1
MEAN_MOTION_DOT = -.1674238E-1
MEAN_MOTION_DDOT = 0

CCSDS_OMM_VERS = 2.0
CREATION_DATE  = 
ORIGINATOR     = 

OBJECT_NAME    = STARLINK-36138
OBJECT_ID      = 2025-294A
CENTER_NAME    = EARTH
REF_FRAME      = TEME
TIME_SYSTEM    = UTC
MEAN_ELEMENT_THEORY = SGP/SGP4

EPOCH          = 2025-12-28T22:00:01.999584
MEAN_MOTION    = 15.55629730
ECCENTRICITY   = .00015302
INCLINATION    = 42.9999
RA_OF_ASC_NODE = 83.8477
ARG_OF_PERICENTER = 276.7600
MEAN_ANOMALY   = 140.5548

EPHEMERIS_TYPE = 0
CLASSIFICATION_TYPE = U
NORAD_CAT_ID   = 67030
ELEMENT_SET_NO = 999
REV_AT_EPOCH   = 270
BSTAR          = -.30924222E-1
MEAN_MOTION_DOT = -.1920342E-1
MEAN_MOTION_DDOT = 0

CCSDS_OMM_VERS = 2.0
CREATION_DATE  = 
ORIGINATOR     = 

OBJECT_NAME    = STARLINK-36150
OBJECT_ID      = 2025-294B
CENTER_NAME    = EARTH
REF_FRAME      = TEME
TIME_SYSTEM    = UTC
MEAN_ELEMENT_THEORY = SGP/SGP4

EPOCH          = 2025-12-28T22:00:01.999584
MEAN_MOTION    = 15.55633660
ECCENTRICITY   = .00017538
INCLINATION    = 42.9999
RA_OF_ASC_NODE = 83.8425
ARG_OF_PERICENTER = 282.9096
MEAN_ANOMALY   = 136.2976

EPHEMERIS_TYPE = 0
CLASSIFICATION_TYPE = U
NORAD_CAT_ID   = 67031
ELEMENT_SET_NO = 999
REV_AT_EPOCH   = 289
BSTAR          = -.30882856E-1
MEAN_MOTION_DOT = -.1918479E-1
MEAN_MOTION_DDOT = 0

CCSDS_OMM_VERS = 2.0
CREATION_DATE  = 
ORIGINATOR     = 

OBJECT_NAME    = STARLINK-36131
OBJECT_ID      = 2025-294C
CENTER_NAME    = EARTH
REF_FRAME      = TEME
TIME_SYSTEM    = UTC
MEAN_ELEMENT_THEORY = SGP/SGP4

EPOCH          = 2025-12-28T22:00:01.999584
MEAN_MOTION    = 15.55619271
ECCENTRICITY   = .00015112
INCLINATION    = 43.0001
RA_OF_ASC_NODE = 83.8328
ARG_OF_PERICENTER = 280.3715
MEAN_ANOMALY   = 142.7315

EPHEMERIS_TYPE = 0
CLASSIFICATION_TYPE = U
NORAD_CAT_ID   = 67032
ELEMENT_SET_NO = 999
REV_AT_EPOCH   = 270
BSTAR          = -.30885381E-1
MEAN_MOTION_DOT = -.1917546E-1
MEAN_MOTION_DDOT = 0

CCSDS_OMM_VERS = 2.0
CREATION_DATE  = 
ORIGINATOR     = 

OBJECT_NAME    = STARLINK-36137
OBJECT_ID      = 2025-294D
CENTER_NAME    = EARTH
REF_FRAME      = TEME
TIME_SYSTEM    = UTC
MEAN_ELEMENT_THEORY = SGP/SGP4

EPOCH          = 2025-12-28T22:00:01.999584
MEAN_MOTION    = 15.55630061
ECCENTRICITY   = .00013854
INCLINATION    = 42.9999
RA_OF_ASC_NODE = 83.8374
ARG_OF_PERICENTER = 284.6624
MEAN_ANOMALY   = 136.4884

EPHEMERIS_TYPE = 0
CLASSIFICATION_TYPE = U
NORAD_CAT_ID   = 67033
ELEMENT_SET_NO = 999
REV_AT_EPOCH   = 270
BSTAR          = -.30991597E-1
MEAN_MOTION_DOT = -.1923947E-1
MEAN_MOTION_DDOT = 0

CCSDS_OMM_VERS = 2.0
CREATION_DATE  = 
ORIGINATOR     = 

OBJECT_NAME    = STARLINK-36140
OBJECT_ID      = 2025-294E
CENTER_NAME    = EARTH
REF_FRAME      = TEME
TIME_SYSTEM    = UTC
MEAN_ELEMENT_THEORY = SGP/SGP4

EPOCH          = 2025-12-28T22:00:01.999584
MEAN_MOTION    = 15.55605990
ECCENTRICITY   = .00015873
INCLINATION    = 43.0001
RA_OF_ASC_NODE = 83.8281
ARG_OF_PERICENTER = 280.9400
MEAN_ANOMALY   = 144.1406

EPHEMERIS_TYPE = 0
CLASSIFICATION_TYPE = U
NORAD_CAT_ID   = 67034
ELEMENT_SET_NO = 999
REV_AT_EPOCH   = 270
BSTAR          = -.30959002E-1
MEAN_MOTION_DOT = -.1920779E-1
MEAN_MOTION_DDOT = 0

CCSDS_OMM_VERS = 2.0
CREATION_DATE  = 
ORIGINATOR     = 

OBJECT_NAME    = STARLINK-36085
OBJECT_ID      = 2025-294F
CENTER_NAME    = EARTH
REF_FRAME      = TEME
TIME_SYSTEM    = UTC
MEAN_ELEMENT_THEORY = SGP/SGP4

EPOCH          = 2025-12-28T22:00:01.999584
MEAN_MOTION    = 15.55580930
ECCENTRICITY   = .00016908
INCLINATION    = 42.9999
RA_OF_ASC_NODE = 83.8181
ARG_OF_PERICENTER = 283.3838
MEAN_ANOMALY   = 145.6515

EPHEMERIS_TYPE = 0
CLASSIFICATION_TYPE = U
NORAD_CAT_ID   = 67035
ELEMENT_SET_NO = 999
REV_AT_EPOCH   = 270
BSTAR          = -.31098098E-1
MEAN_MOTION_DOT = -.1926849E-1
MEAN_MOTION_DDOT = 0

CCSDS_OMM_VERS = 2.0
CREATION_DATE  = 
ORIGINATOR     = 

OBJECT_NAME    = STARLINK-36125
OBJECT_ID      = 2025-294G
CENTER_NAME    = EARTH
REF_FRAME      = TEME
TIME_SYSTEM    = UTC
MEAN_ELEMENT_THEORY = SGP/SGP4

EPOCH          = 2025-12-28T22:00:01.999584
MEAN_MOTION    = 15.55593239
ECCENTRICITY   = .00017384
INCLINATION    = 43.0001
RA_OF_ASC_NODE = 83.8231
ARG_OF_PERICENTER = 284.3002
MEAN_ANOMALY   = 142.7545

EPHEMERIS_TYPE = 0
CLASSIFICATION_TYPE = U
NORAD_CAT_ID   = 67036
ELEMENT_SET_NO = 999
REV_AT_EPOCH   = 289
BSTAR          = -.30982748E-1
MEAN_MOTION_DOT = -.192137E-1
MEAN_MOTION_DDOT = 0

CCSDS_OMM_VERS = 2.0
CREATION_DATE  = 
ORIGINATOR     = 

OBJECT_NAME    = STARLINK-35732
OBJECT_ID      = 2025-294H
CENTER_NAME    = EARTH
REF_FRAME      = TEME
TIME_SYSTEM    = UTC
MEAN_ELEMENT_THEORY = SGP/SGP4

EPOCH          = 2025-12-28T22:00:01.999584
MEAN_MOTION    = 15.55560378
ECCENTRICITY   = .0001513
INCLINATION    = 42.9999
RA_OF_ASC_NODE = 83.8130
ARG_OF_PERICENTER = 282.0413
MEAN_ANOMALY   = 148.9950

EPHEMERIS_TYPE = 0
CLASSIFICATION_TYPE = U
NORAD_CAT_ID   = 67037
ELEMENT_SET_NO = 999
REV_AT_EPOCH   = 281
BSTAR          = -.31112794E-1
MEAN_MOTION_DOT = -.1926229E-1
MEAN_MOTION_DDOT = 0

