STARLINK-36176          
1 67026U 25293Z   25362.91668981 -.01675749  00000+0 -20015-1 0  9997
2 67026  69.9993 277.2071 0003357 263.9346 301.0774 15.64054505  2813
STARLINK-36171          
1 67027U 25293AA  25362.91668981 -.01672519  00000+0 -19964-1 0  9991
2 67027  69.9992 277.2092 0003273 264.4107 298.5711 15.64064226  2816
STARLINK-36132          
1 67028U 25293AB  25362.91668981 -.01673592  00000+0 -20019-1 0  9997
2 67028  69.9992 277.2016 0003296 264.7813 304.5441 15.64013167  2811
STARLINK-36190          
1 67029U 25293AC  25362.91668981 -.01674238  00000+0 -20005-1 0  9991
2 67029  69.9993 277.2048 0003316 264.1203 302.9599 15.64041978  2815
STARLINK-36138          
1 67030U 25294A   25362.91668981 -.01920342  00000+0 -30924-1 0  9995
2 67030  42.9999  83.8477 0001530 276.7600 140.5548 15.55629730  2703
STARLINK-36150          
1 67031U 25294B   25362.91668981 -.01918479  00000+0 -30883-1 0  9998
2 67031  42.9999  83.8425 0001753 282.9096 136.2976 15.55633660  2896
STARLINK-36131          
1 67032U 25294C   25362.91668981 -.01917546  00000+0 -30885-1 0  9995
2 67032  43.0001  83.8328 0001511 280.3715 142.7315 15.55619271  2708
STARLINK-36137          
1 67033U 25294D   25362.91668981 -.01923947  00000+0 -30992-1 0  9997
2 67033  42.9999  83.8374 0001385 284.6624 136.4884 15.55630061  2700
STARLINK-36140          
1 67034U 25294E   25362.91668981 -.01920779  00000+0 -30959-1 0  9991
2 67034  43.0001  83.8281 0001587 280.9400 144.1406 15.55605990  2708
STARLINK-36085          
1 67035U 25294F   25362.91668981 -.01926849  00000+0 -31098-1 0  9991
2 67035  42.9999  83.8181 0001690 283.3838 145.6515 15.55580930  2702
STARLINK-36125          
1 67036U 25294G   25362.91668981 -.01921370  00000+0 -30983-1 0  9998
2 67036  43.0001  83.8231 0001738 284.3002 142.7545 15.55593239  2899
STARLINK-35732          
1 67037U 25294H   25362.91668981 -.01926229  00000+0 -31113-1 0  9993
2 67037  42.9999  83.8130 0001513 282.0413 148.9950 15.55560378  2812
